{
  "norad_id": 69042,
  "name": "STARLINK-37644",
  "history": [
    {
      "epoch": "2026-05-13T20:00:01.999008Z",
      "apogee_km": 313.51599653923677,
      "perigee_km": 311.78977274899717,
      "latitude_deg": -45.27408292698485,
      "longitude_deg": -176.19485260753635,
      "height_km": 330.90163019832437,
      "semi_major_axis_km": 6690.789884644117,
      "eccentricity": 0.000129,
      "inclination_deg": 97.2883,
      "raan_deg": 348.0243,
      "arg_perigee_deg": 94.5514,
      "mean_anomaly_deg": 219.9921,
      "mean_motion_rev_day": 15.86304932
    }
  ]
}