[ {"name": "STARLINK-37644", "line1": "1 69042U 26101T   26133.83335647 -.01875905  00000+0 -88389-2 0  9999", "line2": "2 69042  97.2883 348.0243 0001290  94.5514 219.9921 15.86304932  2448"}]